start=new Date('2021-09-25T00:00:00.000Z').valueOf();
sats=[{"ARG_OF_PERICENTER":"277.9259","CLASSIFICATION_TYPE":"U","OBJECT_TYPE":"PAYLOAD","APOAPSIS":"549.915","NORAD_CAT_ID":"46374","EPHEMERIS_TYPE":"0","FILE":"3126800","MEAN_ANOMALY":"82.1288","COUNTRY_CODE":"US","DECAY_DATE":null,"ELEMENT_SET_NO":"999","MEAN_ELEMENT_THEORY":"SGP4","MEAN_MOTION":"15.06399523","OBJECT_NAME":"STARLINK-1711","LAUNCH_DATE":"2020-09-03","MEAN_MOTION_DOT":"-0.00000101","RA_OF_ASC_NODE":"50.5049","REF_FRAME":"TEME","REV_AT_EPOCH":"6006","EPOCH":"2021-09-24T16:34:43.869792","CENTER_NAME":"EARTH","TLE_LINE1":"1 46374U 20062BB  21267.69078553 -.00000101  00000-0  12157-4 0  9998","PERIOD":"95.592","TIME_SYSTEM":"UTC","SITE":"AFETR","RCS_SIZE":"LARGE","GP_ID":"185429544","BSTAR":"0.00001215700000","INCLINATION":"53.0558","MEAN_MOTION_DDOT":"0.0000000000000","OBJECT_ID":"2020-062BB","TLE_LINE2":"2 46374  53.0558  50.5049 0003899 277.9259  82.1288 15.06399523 60069","PERIAPSIS":"544.515","SEMIMAJOR_AXIS":"6925.350","ECCENTRICITY":"0.00038990"},{"MEAN_MOTION_DOT":"0.00000102","LAUNCH_DATE":"2020-09-03","REF_FRAME":"TEME","RA_OF_ASC_NODE":"74.8445","MEAN_MOTION":"15.06403828","MEAN_ELEMENT_THEORY":"SGP4","DECAY_DATE":null,"ELEMENT_SET_NO":"999","OBJECT_NAME":"STARLINK-1724","NORAD_CAT_ID":"46375","EPHEMERIS_TYPE":"0","FILE":"3126800","COUNTRY_CODE":"US","MEAN_ANOMALY":"263.0590","CLASSIFICATION_TYPE":"U","OBJECT_TYPE":"PAYLOAD","ARG_OF_PERICENTER":"97.0609","APOAPSIS":"548.481","TLE_LINE2":"2 46375  53.0563  74.8445 0001847  97.0609 263.0590 15.06403828 59738","ECCENTRICITY":"0.00018470","PERIAPSIS":"545.923","SEMIMAJOR_AXIS":"6925.337","BSTAR":"0.00002572200000","GP_ID":"185430296","SITE":"AFETR","TIME_SYSTEM":"UTC","RCS_SIZE":"LARGE","OBJECT_ID":"2020-062BC","INCLINATION":"53.0563","MEAN_MOTION_DDOT":"0.0000000000000","EPOCH":"2021-09-24T20:06:23.444640","CENTER_NAME":"EARTH","PERIOD":"95.592","TLE_LINE1":"1 46375U 20062BC  21267.83777135  .00000102  00000-0  25722-4 0  9999","REV_AT_EPOCH":"5973"},{"APOAPSIS":"548.318","ARG_OF_PERICENTER":"93.2057","CLASSIFICATION_TYPE":"U","OBJECT_TYPE":"PAYLOAD","FILE":"3126800","COUNTRY_CODE":"US","MEAN_ANOMALY":"266.9111","EPHEMERIS_TYPE":"0","NORAD_CAT_ID":"46376","OBJECT_NAME":"STARLINK-1742","MEAN_ELEMENT_THEORY":"SGP4","ELEMENT_SET_NO":"999","DECAY_DATE":null,"MEAN_MOTION":"15.06393601","RA_OF_ASC_NODE":"75.3799","REF_FRAME":"TEME","LAUNCH_DATE":"2020-09-03","MEAN_MOTION_DOT":"-0.00000663","REV_AT_EPOCH":"5971","PERIOD":"95.593","TLE_LINE1":"1 46376U 20062BD  21267.71983104 -.00000663  00000-0 -25606-4 0  9997","CENTER_NAME":"EARTH","EPOCH":"2021-09-24T17:16:33.401856","OBJECT_ID":"2020-062BD","INCLINATION":"53.0544","MEAN_MOTION_DDOT":"0.0000000000000","SITE":"AFETR","TIME_SYSTEM":"UTC","RCS_SIZE":"LARGE","BSTAR":"-0.00002560600000","GP_ID":"185429045","PERIAPSIS":"546.149","SEMIMAJOR_AXIS":"6925.368","ECCENTRICITY":"0.00015660","TLE_LINE2":"2 46376  53.0544  75.3799 0001566  93.2057 266.9111 15.06393601 59715"},{"EPOCH":"2021-09-24T20:43:33.284352","CENTER_NAME":"EARTH","TLE_LINE1":"1 46378U 20062BF  21267.86357968  .00001436  00000-0  11529-3 0  9993","PERIOD":"95.592","REV_AT_EPOCH":"5973","TLE_LINE2":"2 46378  53.0559  74.7346 0001729 101.5394 258.5789 15.06399812 59732","PERIAPSIS":"546.017","SEMIMAJOR_AXIS":"6925.349","ECCENTRICITY":"0.00017290","SITE":"AFETR","TIME_SYSTEM":"UTC","RCS_SIZE":"LARGE","GP_ID":"185429295","BSTAR":"0.00011529000000","MEAN_MOTION_DDOT":"0.0000000000000","INCLINATION":"53.0559","OBJECT_ID":"2020-062BF","EPHEMERIS_TYPE":"0","NORAD_CAT_ID":"46378","FILE":"3126800","MEAN_ANOMALY":"258.5789","COUNTRY_CODE":"US","ARG_OF_PERICENTER":"101.5394","CLASSIFICATION_TYPE":"U","OBJECT_TYPE":"PAYLOAD","APOAPSIS":"548.412","LAUNCH_DATE":"2020-09-03","MEAN_MOTION_DOT":"0.00001436","RA_OF_ASC_NODE":"74.7346","REF_FRAME":"TEME","ELEMENT_SET_NO":"999","DECAY_DATE":null,"MEAN_ELEMENT_THEORY":"SGP4","MEAN_MOTION":"15.06399812","OBJECT_NAME":"STARLINK-1751"},{"OBJECT_ID":"2020-062BG","MEAN_MOTION_DDOT":"0.0000000000000","INCLINATION":"53.0323","RCS_SIZE":"LARGE","SITE":"AFETR","TIME_SYSTEM":"UTC","BSTAR":"0.00063386000000","GP_ID":"185394601","PERIAPSIS":"306.390","SEMIMAJOR_AXIS":"6686.649","ECCENTRICITY":"0.00031760","TLE_LINE2":"2 46379  53.0323 325.8337 0003176  39.8590 320.2666 15.87778696 61409","REV_AT_EPOCH":"6140","PERIOD":"90.693","TLE_LINE1":"1 46379U 20062BG  21267.51390433  .00176824  00000-0  63386-3 0  9992","EPOCH":"2021-09-24T12:20:01.334112","CENTER_NAME":"EARTH","OBJECT_NAME":"STARLINK-1756","MEAN_ELEMENT_THEORY":"SGP4","DECAY_DATE":null,"ELEMENT_SET_NO":"999","MEAN_MOTION":"15.87778696","RA_OF_ASC_NODE":"325.8337","REF_FRAME":"TEME","LAUNCH_DATE":"2020-09-03","MEAN_MOTION_DOT":"0.00176824","APOAPSIS":"310.638","ARG_OF_PERICENTER":"39.8590","OBJECT_TYPE":"PAYLOAD","CLASSIFICATION_TYPE":"U","MEAN_ANOMALY":"320.2666","FILE":"3126260","COUNTRY_CODE":"US","NORAD_CAT_ID":"46379","EPHEMERIS_TYPE":"0"},{"SITE":"AFETR","TIME_SYSTEM":"UTC","RCS_SIZE":"LARGE","GP_ID":"185429797","BSTAR":"-0.00003374500000","INCLINATION":"53.0530","MEAN_MOTION_DDOT":"0.0000000000000","OBJECT_ID":"2020-062BH","TLE_LINE2":"2 46380  53.0530  99.6286 0002009  96.8269 263.2948 15.06396715 59393","PERIAPSIS":"545.832","SEMIMAJOR_AXIS":"6925.359","ECCENTRICITY":"0.00020090","REV_AT_EPOCH":"5939","CENTER_NAME":"EARTH","EPOCH":"2021-09-24T21:14:43.784736","TLE_LINE1":"1 46380U 20062BH  21267.88522899 -.00000784  00000-0 -33745-4 0  9997","PERIOD":"95.592","DECAY_DATE":null,"ELEMENT_SET_NO":"999","MEAN_ELEMENT_THEORY":"SGP4","MEAN_MOTION":"15.06396715","OBJECT_NAME":"STARLINK-1758","LAUNCH_DATE":"2020-09-03","MEAN_MOTION_DOT":"-0.00000784","RA_OF_ASC_NODE":"99.6286","REF_FRAME":"TEME","ARG_OF_PERICENTER":"96.8269","OBJECT_TYPE":"PAYLOAD","CLASSIFICATION_TYPE":"U","APOAPSIS":"548.615","EPHEMERIS_TYPE":"0","NORAD_CAT_ID":"46380","FILE":"3126800","COUNTRY_CODE":"US","MEAN_ANOMALY":"263.2948"},{"MEAN_ANOMALY":"254.2771","FILE":"3126800","COUNTRY_CODE":"US","NORAD_CAT_ID":"46382","EPHEMERIS_TYPE":"0","APOAPSIS":"548.531","ARG_OF_PERICENTER":"105.8428","OBJECT_TYPE":"PAYLOAD","CLASSIFICATION_TYPE":"U","RA_OF_ASC_NODE":"74.7185","REF_FRAME":"TEME","LAUNCH_DATE":"2020-09-03","MEAN_MOTION_DOT":"-0.00000325","OBJECT_NAME":"STARLINK-1769","DECAY_DATE":null,"ELEMENT_SET_NO":"999","MEAN_ELEMENT_THEORY":"SGP4","MEAN_MOTION":"15.06401219","TLE_LINE1":"1 46382U 20062BK  21267.86726571 -.00000325  00000-0 -29030-5 0  9994","PERIOD":"95.592","EPOCH":"2021-09-24T20:48:51.757344","CENTER_NAME":"EARTH","REV_AT_EPOCH":"5974","SEMIMAJOR_AXIS":"6925.345","PERIAPSIS":"545.888","ECCENTRICITY":"0.00019080","TLE_LINE2":"2 46382  53.0552  74.7185 0001908 105.8428 254.2771 15.06401219 59745","INCLINATION":"53.0552","MEAN_MOTION_DDOT":"0.0000000000000","OBJECT_ID":"2020-062BK","TIME_SYSTEM":"UTC","SITE":"AFETR","RCS_SIZE":"LARGE","GP_ID":"185428546","BSTAR":"-0.00000290300000"},{"ECCENTRICITY":"0.00019550","SEMIMAJOR_AXIS":"6925.363","PERIAPSIS":"545.874","TLE_LINE2":"2 46383  53.0541 119.7729 0001955  81.6104 278.5106 15.06395167 59107","OBJECT_ID":"2020-062BL","INCLINATION":"53.0541","MEAN_MOTION_DDOT":"0.0000000000000","BSTAR":"0.00011182000000","GP_ID":"185428796","SITE":"AFETR","RCS_SIZE":"LARGE","TIME_SYSTEM":"UTC","PERIOD":"95.592","TLE_LINE1":"1 46383U 20062BL  21267.85392203  .00001384  00000-0  11182-3 0  9996","CENTER_NAME":"EARTH","EPOCH":"2021-09-24T20:29:38.863392","REV_AT_EPOCH":"5910","REF_FRAME":"TEME","RA_OF_ASC_NODE":"119.7729","MEAN_MOTION_DOT":"0.00001384","LAUNCH_DATE":"2020-09-03","OBJECT_NAME":"STARLINK-1770","MEAN_MOTION":"15.06395167","MEAN_ELEMENT_THEORY":"SGP4","ELEMENT_SET_NO":"999","DECAY_DATE":null,"COUNTRY_CODE":"US","FILE":"3126800","MEAN_ANOMALY":"278.5106","EPHEMERIS_TYPE":"0","NORAD_CAT_ID":"46383","APOAPSIS":"548.582","CLASSIFICATION_TYPE":"U","OBJECT_TYPE":"PAYLOAD","ARG_OF_PERICENTER":"81.6104"},{"OBJECT_ID":"2020-062BM","INCLINATION":"53.0531","MEAN_MOTION_DDOT":"0.0000000000000","SITE":"AFETR","RCS_SIZE":"LARGE","TIME_SYSTEM":"UTC","BSTAR":"0.00009104600000","GP_ID":"185429545","PERIAPSIS":"545.757","SEMIMAJOR_AXIS":"6925.367","ECCENTRICITY":"0.00021300","TLE_LINE2":"2 46384  53.0531 119.7449 0002130  73.5837 286.5386 15.06393942 59103","REV_AT_EPOCH":"5910","PERIOD":"95.593","TLE_LINE1":"1 46384U 20062BM  21267.85759774  .00001074  00000-0  91046-4 0  9991","EPOCH":"2021-09-24T20:34:56.444736","CENTER_NAME":"EARTH","OBJECT_NAME":"STARLINK-1771","MEAN_ELEMENT_THEORY":"SGP4","DECAY_DATE":null,"ELEMENT_SET_NO":"999","MEAN_MOTION":"15.06393942","RA_OF_ASC_NODE":"119.7449","REF_FRAME":"TEME","LAUNCH_DATE":"2020-09-03","MEAN_MOTION_DOT":"0.00001074","APOAPSIS":"548.707","ARG_OF_PERICENTER":"73.5837","OBJECT_TYPE":"PAYLOAD","CLASSIFICATION_TYPE":"U","MEAN_ANOMALY":"286.5386","FILE":"3126800","COUNTRY_CODE":"US","EPHEMERIS_TYPE":"0","NORAD_CAT_ID":"46384"},{"COUNTRY_CODE":"US","FILE":"3126690","MEAN_ANOMALY":"299.2189","EPHEMERIS_TYPE":"0","NORAD_CAT_ID":"46532","APOAPSIS":"548.005","ARG_OF_PERICENTER":"60.8911","CLASSIFICATION_TYPE":"U","OBJECT_TYPE":"PAYLOAD","RA_OF_ASC_NODE":"281.5476","REF_FRAME":"TEME","LAUNCH_DATE":"2020-10-06","MEAN_MOTION_DOT":"0.00001055","OBJECT_NAME":"STARLINK-1644","MEAN_ELEMENT_THEORY":"SGP4","ELEMENT_SET_NO":"999","DECAY_DATE":null,"MEAN_MOTION":"15.06393147","PERIOD":"95.593","TLE_LINE1":"1 46532U 20070A   21267.45950285  .00001055  00000-0  89699-4 0  9991","EPOCH":"2021-09-24T11:01:41.046240","CENTER_NAME":"EARTH","REV_AT_EPOCH":"5426","PERIAPSIS":"546.464","SEMIMAJOR_AXIS":"6925.370","ECCENTRICITY":"0.00011120","TLE_LINE2":"2 46532  53.0535 281.5476 0001112  60.8911 299.2189 15.06393147 54262","OBJECT_ID":"2020-070A","INCLINATION":"53.0535","MEAN_MOTION_DDOT":"0.0000000000000","RCS_SIZE":"LARGE","SITE":"AFETR","TIME_SYSTEM":"UTC","BSTAR":"0.00008969900000","GP_ID":"185405232"}];
